[{"OBJECT_NAME":"ONEWEB-0291","OBJECT_ID":"2021-075G","EPOCH":"2026-04-01T03:56:10.430304","MEAN_MOTION":13.1765005,"ECCENTRICITY":0.0001679,"INCLINATION":87.9188,"RA_OF_ASC_NODE":21.1529,"ARG_OF_PERICENTER":67.1498,"MEAN_ANOMALY":292.9811,"EPHEMERIS_TYPE":0,"CLASSIFICATION_TYPE":"U","NORAD_CAT_ID":49081,"ELEMENT_SET_NO":999,"REV_AT_EPOCH":22346,"BSTAR":2.3765e-05,"MEAN_MOTION_DOT":2.2e-07,"MEAN_MOTION_DDOT":0.0},{"OBJECT_NAME":"ONEWEB-0293","OBJECT_ID":"2021-075H","EPOCH":"2026-04-01T04:32:36.864384","MEAN_MOTION":13.17650479,"ECCENTRICITY":0.0001902,"INCLINATION":87.9181,"RA_OF_ASC_NODE":21.1568,"ARG_OF_PERICENTER":74.5011,"MEAN_ANOMALY":285.633,"EPHEMERIS_TYPE":0,"CLASSIFICATION_TYPE":"U","NORAD_CAT_ID":49082,"ELEMENT_SET_NO":999,"REV_AT_EPOCH":22349,"BSTAR":-0.00011526,"MEAN_MOTION_DOT":-3.2e-07,"MEAN_MOTION_DDOT":0.0},{"OBJECT_NAME":"ONEWEB-0294","OBJECT_ID":"2021-075J","EPOCH":"2026-04-01T04:17:00.393792","MEAN_MOTION":13.1244467,"ECCENTRICITY":0.0002035,"INCLINATION":87.902,"RA_OF_ASC_NODE":5.9485,"ARG_OF_PERICENTER":70.8236,"MEAN_ANOMALY":289.3113,"EPHEMERIS_TYPE":0,"CLASSIFICATION_TYPE":"U","NORAD_CAT_ID":49083,"ELEMENT_SET_NO":999,"REV_AT_EPOCH":22447,"BSTAR":-0.00095822,"MEAN_MOTION_DOT":-3.32e-06,"MEAN_MOTION_DDOT":0.0},{"OBJECT_NAME":"ONEWEB-0295","OBJECT_ID":"2021-075K","EPOCH":"2026-04-01T04:31:22.638144","MEAN_MOTION":13.17652154,"ECCENTRICITY":0.0001603,"INCLINATION":87.9182,"RA_OF_ASC_NODE":21.1616,"ARG_OF_PERICENTER":69.3985,"MEAN_ANOMALY":290.7318,"EPHEMERIS_TYPE":0,"CLASSIFICATION_TYPE":"U","NORAD_CAT_ID":49084,"ELEMENT_SET_NO":999,"REV_AT_EPOCH":22345,"BSTAR":0.0001239,"MEAN_MOTION_DOT":6.1e-07,"MEAN_MOTION_DDOT":0.0},{"OBJECT_NAME":"ONEWEB-0296","OBJECT_ID":"2021-075L","EPOCH":"2026-04-01T03:47:42.585792","MEAN_MOTION":13.12443647,"ECCENTRICITY":0.000162,"INCLINATION":87.9021,"RA_OF_ASC_NODE":5.9571,"ARG_OF_PERICENTER":67.4031,"MEAN_ANOMALY":292.7269,"EPHEMERIS_TYPE":0,"CLASSIFICATION_TYPE":"U","NORAD_CAT_ID":49085,"ELEMENT_SET_NO":999,"REV_AT_EPOCH":22447,"BSTAR":-0.00041788,"MEAN_MOTION_DOT":-1.38e-06,"MEAN_MOTION_DDOT":0.0},{"OBJECT_NAME":"ONEWEB-0297","OBJECT_ID":"2021-075M","EPOCH":"2026-04-01T04:31:37.974144","MEAN_MOTION":13.1244619,"ECCENTRICITY":0.0001671,"INCLINATION":87.9009,"RA_OF_ASC_NODE":5.9727,"ARG_OF_PERICENTER":76.2823,"MEAN_ANOMALY":283.8491,"EPHEMERIS_TYPE":0,"CLASSIFICATION_TYPE":"U","NORAD_CAT_ID":49086,"ELEMENT_SET_NO":999,"REV_AT_EPOCH":22508,"BSTAR":-0.00016064,"MEAN_MOTION_DOT":-4.5e-07,"MEAN_MOTION_DDOT":0.0},{"OBJECT_NAME":"ONEWEB-0298","OBJECT_ID":"2021-075N","EPOCH":"2026-04-01T04:37:40.897344","MEAN_MOTION":13.17649856,"ECCENTRICITY":0.0001741,"INCLINATION":87.9184,"RA_OF_ASC_NODE":21.1578,"ARG_OF_PERICENTER":82.2504,"MEAN_ANOMALY":277.8825,"EPHEMERIS_TYPE":0,"CLASSIFICATION_TYPE":"U","NORAD_CAT_ID":49087,"ELEMENT_SET_NO":999,"REV_AT_EPOCH":22348,"BSTAR":7.4787e-05,"MEAN_MOTION_DOT":4.2e-07,"MEAN_MOTION_DDOT":0.0},{"OBJECT_NAME":"ONEWEB-0299","OBJECT_ID":"2021-075P","EPOCH":"2026-04-01T04:39:54.569376","MEAN_MOTION":13.17650005,"ECCENTRICITY":0.0001682,"INCLINATION":87.9192,"RA_OF_ASC_NODE":21.1306,"ARG_OF_PERICENTER":76.7354,"MEAN_ANOMALY":283.3965,"EPHEMERIS_TYPE":0,"CLASSIFICATION_TYPE":"U","NORAD_CAT_ID":49088,"ELEMENT_SET_NO":999,"REV_AT_EPOCH":22346,"BSTAR":0.0001406,"MEAN_MOTION_DOT":6.7e-07,"MEAN_MOTION_DDOT":0.0},{"OBJECT_NAME":"ONEWEB-0300","OBJECT_ID":"2021-075Q","EPOCH":"2026-04-01T04:20:39.446304","MEAN_MOTION":13.12437708,"ECCENTRICITY":0.0001572,"INCLINATION":87.9019,"RA_OF_ASC_NODE":5.9448,"ARG_OF_PERICENTER":88.9835,"MEAN_ANOMALY":271.1473,"EPHEMERIS_TYPE":0,"CLASSIFICATION_TYPE":"U","NORAD_CAT_ID":49089,"ELEMENT_SET_NO":999,"REV_AT_EPOCH":22510,"BSTAR":0.0013733,"MEAN_MOTION_DOT":5.07e-06,"MEAN_MOTION_DDOT":0.0},{"OBJECT_NAME":"ONEWEB-0301","OBJECT_ID":"2021-075R","EPOCH":"2026-04-01T03:57:28.726848","MEAN_MOTION":13.12441819,"ECCENTRICITY":0.0001756,"INCLINATION":87.9017,"RA_OF_ASC_NODE":5.948,"ARG_OF_PERICENTER":90.4313,"MEAN_ANOMALY":269.7016,"EPHEMERIS_TYPE":0,"CLASSIFICATION_TYPE":"U","NORAD_CAT_ID":49090,"ELEMENT_SET_NO":999,"REV_AT_EPOCH":22446,"BSTAR":-0.0008852700000000001,"MEAN_MOTION_DOT":-3.06e-06,"MEAN_MOTION_DDOT":0.0},{"OBJECT_NAME":"ONEWEB-0302","OBJECT_ID":"2021-075S","EPOCH":"2026-04-01T03:37:57.128160","MEAN_MOTION":13.12443918,"ECCENTRICITY":0.0001896,"INCLINATION":87.902,"RA_OF_ASC_NODE":5.9602,"ARG_OF_PERICENTER":68.6773,"MEAN_ANOMALY":291.4558,"EPHEMERIS_TYPE":0,"CLASSIFICATION_TYPE":"U","NORAD_CAT_ID":49091,"ELEMENT_SET_NO":999,"REV_AT_EPOCH":22444,"BSTAR":0.00015565999999999998,"MEAN_MOTION_DOT":6.9e-07,"MEAN_MOTION_DDOT":0.0},{"OBJECT_NAME":"ONEWEB-0304","OBJECT_ID":"2021-075T","EPOCH":"2026-04-01T04:03:26.288928","MEAN_MOTION":13.1765164,"ECCENTRICITY":0.0001724,"INCLINATION":87.9185,"RA_OF_ASC_NODE":21.1647,"ARG_OF_PERICENTER":75.465,"MEAN_ANOMALY":284.6673,"EPHEMERIS_TYPE":0,"CLASSIFICATION_TYPE":"U","NORAD_CAT_ID":49092,"ELEMENT_SET_NO":999,"REV_AT_EPOCH":22343,"BSTAR":0.00020534,"MEAN_MOTION_DOT":9.3e-07,"MEAN_MOTION_DDOT":0.0},{"OBJECT_NAME":"ONEWEB-0305","OBJECT_ID":"2021-075U","EPOCH":"2026-04-01T03:53:43.409472","MEAN_MOTION":13.1765171,"ECCENTRICITY":0.0001484,"INCLINATION":87.919,"RA_OF_ASC_NODE":21.1451,"ARG_OF_PERICENTER":72.1981,"MEAN_ANOMALY":287.9312,"EPHEMERIS_TYPE":0,"CLASSIFICATION_TYPE":"U","NORAD_CAT_ID":49093,"ELEMENT_SET_NO":999,"REV_AT_EPOCH":22346,"BSTAR":7.8296e-05,"MEAN_MOTION_DOT":4.3e-07,"MEAN_MOTION_DDOT":0.0},{"OBJECT_NAME":"ONEWEB-0308","OBJECT_ID":"2021-075V","EPOCH":"2026-04-01T03:28:12.027360","MEAN_MOTION":13.12443954,"ECCENTRICITY":0.0001782,"INCLINATION":87.9019,"RA_OF_ASC_NODE":5.9543,"ARG_OF_PERICENTER":78.2824,"MEAN_ANOMALY":281.8504,"EPHEMERIS_TYPE":0,"CLASSIFICATION_TYPE":"U","NORAD_CAT_ID":49094,"ELEMENT_SET_NO":999,"REV_AT_EPOCH":22445,"BSTAR":0.00087959,"MEAN_MOTION_DOT":3.29e-06,"MEAN_MOTION_DDOT":0.0},{"OBJECT_NAME":"ONEWEB-0309","OBJECT_ID":"2021-075W","EPOCH":"2026-04-01T02:09:15.617376","MEAN_MOTION":13.17649333,"ECCENTRICITY":0.0002021,"INCLINATION":87.9184,"RA_OF_ASC_NODE":21.1742,"ARG_OF_PERICENTER":67.0338,"MEAN_ANOMALY":293.1007,"EPHEMERIS_TYPE":0,"CLASSIFICATION_TYPE":"U","NORAD_CAT_ID":49095,"ELEMENT_SET_NO":999,"REV_AT_EPOCH":22342,"BSTAR":-5.456e-05,"MEAN_MOTION_DOT":-8e-08,"MEAN_MOTION_DDOT":0.0},{"OBJECT_NAME":"ONEWEB-0310","OBJECT_ID":"2021-075X","EPOCH":"2026-04-01T03:50:10.027392","MEAN_MOTION":13.12441523,"ECCENTRICITY":0.0001817,"INCLINATION":87.9011,"RA_OF_ASC_NODE":5.9799,"ARG_OF_PERICENTER":78.1788,"MEAN_ANOMALY":281.9544,"EPHEMERIS_TYPE":0,"CLASSIFICATION_TYPE":"U","NORAD_CAT_ID":49096,"ELEMENT_SET_NO":999,"REV_AT_EPOCH":22508,"BSTAR":-0.00041717,"MEAN_MOTION_DOT":-1.37e-06,"MEAN_MOTION_DDOT":0.0},{"OBJECT_NAME":"ONEWEB-0311","OBJECT_ID":"2021-075Y","EPOCH":"2026-04-01T04:08:18.155904","MEAN_MOTION":13.17648921,"ECCENTRICITY":0.0001332,"INCLINATION":87.9192,"RA_OF_ASC_NODE":21.1527,"ARG_OF_PERICENTER":77.2829,"MEAN_ANOMALY":282.8451,"EPHEMERIS_TYPE":0,"CLASSIFICATION_TYPE":"U","NORAD_CAT_ID":49097,"ELEMENT_SET_NO":999,"REV_AT_EPOCH":22348,"BSTAR":-7.9969e-05,"MEAN_MOTION_DOT":-1.8e-07,"MEAN_MOTION_DDOT":0.0}]