ONEWEB-0291             
1 49081U 21075G   26091.16400961  .00000022  00000+0  23765-4 0  9992
2 49081  87.9188  21.1529 0001679  67.1498 292.9811 13.17650050223460
ONEWEB-0293             
1 49082U 21075H   26091.18931556 -.00000032  00000+0 -11526-3 0  9998
2 49082  87.9181  21.1568 0001902  74.5011 285.6330 13.17650479223492
ONEWEB-0294             
1 49083U 21075J   26091.17847678 -.00000332  00000+0 -95822-3 0  9993
2 49083  87.9020   5.9485 0002035  70.8236 289.3113 13.12444670224477
ONEWEB-0295             
1 49084U 21075K   26091.18845646  .00000061  00000+0  12390-3 0  9994
2 49084  87.9182  21.1616 0001603  69.3985 290.7318 13.17652154223450
ONEWEB-0296             
1 49085U 21075L   26091.15813178 -.00000138  00000+0 -41788-3 0  9997
2 49085  87.9021   5.9571 0001620  67.4031 292.7269 13.12443647224473
ONEWEB-0297             
1 49086U 21075M   26091.18863396 -.00000045  00000+0 -16064-3 0  9994
2 49086  87.9009   5.9727 0001671  76.2823 283.8491 13.12446190225088
ONEWEB-0298             
1 49087U 21075N   26091.19283446  .00000042  00000+0  74787-4 0  9990
2 49087  87.9184  21.1578 0001741  82.2504 277.8825 13.17649856223483
ONEWEB-0299             
1 49088U 21075P   26091.19438159  .00000067  00000+0  14060-3 0  9998
2 49088  87.9192  21.1306 0001682  76.7354 283.3965 13.17650005223460
ONEWEB-0300             
1 49089U 21075Q   26091.18101211  .00000507  00000+0  13733-2 0  9998
2 49089  87.9019   5.9448 0001572  88.9835 271.1473 13.12437708225103
ONEWEB-0301             
1 49090U 21075R   26091.16491582 -.00000306  00000+0 -88527-3 0  9994
2 49090  87.9017   5.9480 0001756  90.4313 269.7016 13.12441819224464
ONEWEB-0302             
1 49091U 21075S   26091.15135565  .00000069  00000+0  15566-3 0  9997
2 49091  87.9020   5.9602 0001896  68.6773 291.4558 13.12443918224440
ONEWEB-0304             
1 49092U 21075T   26091.16905427  .00000093  00000+0  20534-3 0  9999
2 49092  87.9185  21.1647 0001724  75.4650 284.6673 13.17651640223430
ONEWEB-0305             
1 49093U 21075U   26091.16230798  .00000043  00000+0  78296-4 0  9996
2 49093  87.9190  21.1451 0001484  72.1981 287.9312 13.17651710223461
ONEWEB-0308             
1 49094U 21075V   26091.14458365  .00000329  00000+0  87959-3 0  9999
2 49094  87.9019   5.9543 0001782  78.2824 281.8504 13.12443954224458
ONEWEB-0309             
1 49095U 21075W   26091.08976409 -.00000008  00000+0 -54560-4 0  9996
2 49095  87.9184  21.1742 0002021  67.0338 293.1007 13.17649333223420
ONEWEB-0310             
1 49096U 21075X   26091.15983828 -.00000137  00000+0 -41717-3 0  9990
2 49096  87.9011   5.9799 0001817  78.1788 281.9544 13.12441523225087
ONEWEB-0311             
1 49097U 21075Y   26091.17243236 -.00000018  00000+0 -79969-4 0  9994
2 49097  87.9192  21.1527 0001332  77.2829 282.8451 13.17648921223480
